[{"OBJECT_NAME":"ONEWEB-0690","OBJECT_ID":"2024-188E","EPOCH":"2025-08-07T14:54:32.150880","MEAN_MOTION":13.11415499,"ECCENTRICITY":0.00024133,"INCLINATION":87.8808,"RA_OF_ASC_NODE":83.5285,"ARG_OF_PERICENTER":73.0836,"MEAN_ANOMALY":287.0556,"EPHEMERIS_TYPE":0,"CLASSIFICATION_TYPE":"U","NORAD_CAT_ID":61598,"ELEMENT_SET_NO":999,"REV_AT_EPOCH":4353,"BSTAR":0.00046690419,"MEAN_MOTION_DOT":1.78e-6,"MEAN_MOTION_DDOT":0},{"OBJECT_NAME":"ONEWEB-0691","OBJECT_ID":"2024-188F","EPOCH":"2025-08-07T14:47:14.415648","MEAN_MOTION":13.11414766,"ECCENTRICITY":0.00019479,"INCLINATION":87.872,"RA_OF_ASC_NODE":83.5147,"ARG_OF_PERICENTER":92.8917,"MEAN_ANOMALY":267.2434,"EPHEMERIS_TYPE":0,"CLASSIFICATION_TYPE":"U","NORAD_CAT_ID":61599,"ELEMENT_SET_NO":999,"REV_AT_EPOCH":4338,"BSTAR":0.0015382114,"MEAN_MOTION_DOT":5.58e-6,"MEAN_MOTION_DDOT":0},{"OBJECT_NAME":"ONEWEB-0692","OBJECT_ID":"2024-188G","EPOCH":"2025-08-07T13:26:39.122592","MEAN_MOTION":13.11416395,"ECCENTRICITY":0.00012663,"INCLINATION":87.8791,"RA_OF_ASC_NODE":83.6118,"ARG_OF_PERICENTER":49.6677,"MEAN_ANOMALY":310.4561,"EPHEMERIS_TYPE":0,"CLASSIFICATION_TYPE":"U","NORAD_CAT_ID":61600,"ELEMENT_SET_NO":999,"REV_AT_EPOCH":4336,"BSTAR":-0.00068121359,"MEAN_MOTION_DOT":-2.29e-6,"MEAN_MOTION_DDOT":0},{"OBJECT_NAME":"ONEWEB-0693","OBJECT_ID":"2024-188H","EPOCH":"2025-08-07T13:53:42.956160","MEAN_MOTION":13.17649219,"ECCENTRICITY":0.00025912,"INCLINATION":87.9031,"RA_OF_ASC_NODE":68.3439,"ARG_OF_PERICENTER":81.8979,"MEAN_ANOMALY":278.2447,"EPHEMERIS_TYPE":0,"CLASSIFICATION_TYPE":"U","NORAD_CAT_ID":61601,"ELEMENT_SET_NO":999,"REV_AT_EPOCH":4458,"BSTAR":0.00012602206,"MEAN_MOTION_DOT":6.2e-7,"MEAN_MOTION_DDOT":0},{"OBJECT_NAME":"ONEWEB-0695","OBJECT_ID":"2024-188J","EPOCH":"2025-08-07T14:42:18.950976","MEAN_MOTION":13.1141981,"ECCENTRICITY":0.0001159,"INCLINATION":87.8794,"RA_OF_ASC_NODE":83.5873,"ARG_OF_PERICENTER":75.1123,"MEAN_ANOMALY":285.0134,"EPHEMERIS_TYPE":0,"CLASSIFICATION_TYPE":"U","NORAD_CAT_ID":61602,"ELEMENT_SET_NO":999,"REV_AT_EPOCH":4336,"BSTAR":0.0017536562,"MEAN_MOTION_DOT":6.34e-6,"MEAN_MOTION_DDOT":0},{"OBJECT_NAME":"ONEWEB-0697","OBJECT_ID":"2024-188K","EPOCH":"2025-08-07T13:38:51.349632","MEAN_MOTION":13.11416649,"ECCENTRICITY":0.00014192,"INCLINATION":87.8785,"RA_OF_ASC_NODE":83.5895,"ARG_OF_PERICENTER":53.344,"MEAN_ANOMALY":306.7818,"EPHEMERIS_TYPE":0,"CLASSIFICATION_TYPE":"U","NORAD_CAT_ID":61603,"ELEMENT_SET_NO":999,"REV_AT_EPOCH":4334,"BSTAR":-0.0012705691,"MEAN_MOTION_DOT":-4.38e-6,"MEAN_MOTION_DDOT":0},{"OBJECT_NAME":"ONEWEB-0698","OBJECT_ID":"2024-188L","EPOCH":"2025-08-07T14:57:00.252576","MEAN_MOTION":13.11416199,"ECCENTRICITY":0.000217,"INCLINATION":87.879,"RA_OF_ASC_NODE":83.5915,"ARG_OF_PERICENTER":51.6408,"MEAN_ANOMALY":308.4915,"EPHEMERIS_TYPE":0,"CLASSIFICATION_TYPE":"U","NORAD_CAT_ID":61604,"ELEMENT_SET_NO":999,"REV_AT_EPOCH":4337,"BSTAR":0.0012532062,"MEAN_MOTION_DOT":4.57e-6,"MEAN_MOTION_DDOT":0},{"OBJECT_NAME":"ONEWEB-0699","OBJECT_ID":"2024-188M","EPOCH":"2025-08-07T14:45:58.341312","MEAN_MOTION":13.10372471,"ECCENTRICITY":0.00016308,"INCLINATION":87.8794,"RA_OF_ASC_NODE":98.7958,"ARG_OF_PERICENTER":57.9369,"MEAN_ANOMALY":302.1917,"EPHEMERIS_TYPE":0,"CLASSIFICATION_TYPE":"U","NORAD_CAT_ID":61605,"ELEMENT_SET_NO":999,"REV_AT_EPOCH":4224,"BSTAR":-0.0017730635,"MEAN_MOTION_DOT":-6.06e-6,"MEAN_MOTION_DDOT":0},{"OBJECT_NAME":"ONEWEB-0700","OBJECT_ID":"2024-188N","EPOCH":"2025-08-07T14:48:20.913408","MEAN_MOTION":13.1037267,"ECCENTRICITY":0.00011053,"INCLINATION":87.8754,"RA_OF_ASC_NODE":98.6912,"ARG_OF_PERICENTER":70.4819,"MEAN_ANOMALY":289.6428,"EPHEMERIS_TYPE":0,"CLASSIFICATION_TYPE":"U","NORAD_CAT_ID":61606,"ELEMENT_SET_NO":999,"REV_AT_EPOCH":4223,"BSTAR":-0.0016449985,"MEAN_MOTION_DOT":-5.62e-6,"MEAN_MOTION_DDOT":0},{"OBJECT_NAME":"ONEWEB-0701","OBJECT_ID":"2024-188P","EPOCH":"2025-08-07T09:42:24.436800","MEAN_MOTION":13.10376805,"ECCENTRICITY":0.00015544,"INCLINATION":87.8791,"RA_OF_ASC_NODE":98.8455,"ARG_OF_PERICENTER":48.9303,"MEAN_ANOMALY":311.1959,"EPHEMERIS_TYPE":0,"CLASSIFICATION_TYPE":"U","NORAD_CAT_ID":61607,"ELEMENT_SET_NO":999,"REV_AT_EPOCH":4221,"BSTAR":-0.00027292288,"MEAN_MOTION_DOT":-8.3e-7,"MEAN_MOTION_DDOT":0},{"OBJECT_NAME":"ONEWEB-0702","OBJECT_ID":"2024-188Q","EPOCH":"2025-08-07T08:43:26.564160","MEAN_MOTION":13.11419838,"ECCENTRICITY":0.00010853,"INCLINATION":87.8724,"RA_OF_ASC_NODE":83.5944,"ARG_OF_PERICENTER":51.8604,"MEAN_ANOMALY":308.2622,"EPHEMERIS_TYPE":0,"CLASSIFICATION_TYPE":"U","NORAD_CAT_ID":61608,"ELEMENT_SET_NO":999,"REV_AT_EPOCH":4335,"BSTAR":5.9276568e-5,"MEAN_MOTION_DOT":3.4e-7,"MEAN_MOTION_DDOT":0},{"OBJECT_NAME":"ONEWEB-0704","OBJECT_ID":"2024-188R","EPOCH":"2025-08-07T14:55:31.531872","MEAN_MOTION":13.10374761,"ECCENTRICITY":0.00010729,"INCLINATION":87.8816,"RA_OF_ASC_NODE":98.7443,"ARG_OF_PERICENTER":48.7148,"MEAN_ANOMALY":311.4072,"EPHEMERIS_TYPE":0,"CLASSIFICATION_TYPE":"U","NORAD_CAT_ID":61609,"ELEMENT_SET_NO":999,"REV_AT_EPOCH":4222,"BSTAR":-0.0016938213,"MEAN_MOTION_DOT":-5.79e-6,"MEAN_MOTION_DDOT":0},{"OBJECT_NAME":"ONEWEB-0705","OBJECT_ID":"2024-188S","EPOCH":"2025-08-07T04:02:58.754112","MEAN_MOTION":13.10376289,"ECCENTRICITY":7.444e-5,"INCLINATION":87.8787,"RA_OF_ASC_NODE":98.8755,"ARG_OF_PERICENTER":115.8505,"MEAN_ANOMALY":244.2699,"EPHEMERIS_TYPE":0,"CLASSIFICATION_TYPE":"U","NORAD_CAT_ID":61610,"ELEMENT_SET_NO":999,"REV_AT_EPOCH":3433,"BSTAR":0.00012060108,"MEAN_MOTION_DOT":5.5e-7,"MEAN_MOTION_DDOT":0},{"OBJECT_NAME":"ONEWEB-0706","OBJECT_ID":"2024-188T","EPOCH":"2025-08-07T14:41:07.041984","MEAN_MOTION":13.10369795,"ECCENTRICITY":0.00013366,"INCLINATION":87.879,"RA_OF_ASC_NODE":98.8146,"ARG_OF_PERICENTER":76.3669,"MEAN_ANOMALY":283.7608,"EPHEMERIS_TYPE":0,"CLASSIFICATION_TYPE":"U","NORAD_CAT_ID":61611,"ELEMENT_SET_NO":999,"REV_AT_EPOCH":4231,"BSTAR":-0.0014675097,"MEAN_MOTION_DOT":-5.0e-6,"MEAN_MOTION_DDOT":0},{"OBJECT_NAME":"ONEWEB-0707","OBJECT_ID":"2024-188U","EPOCH":"2025-08-07T14:50:44.962080","MEAN_MOTION":13.1037625,"ECCENTRICITY":0.00012192,"INCLINATION":87.879,"RA_OF_ASC_NODE":98.779,"ARG_OF_PERICENTER":68.365,"MEAN_ANOMALY":291.7607,"EPHEMERIS_TYPE":0,"CLASSIFICATION_TYPE":"U","NORAD_CAT_ID":61612,"ELEMENT_SET_NO":999,"REV_AT_EPOCH":4225,"BSTAR":-0.0017280694,"MEAN_MOTION_DOT":-5.91e-6,"MEAN_MOTION_DDOT":0},{"OBJECT_NAME":"ONEWEB-0708","OBJECT_ID":"2024-188V","EPOCH":"2025-08-07T09:47:11.753952","MEAN_MOTION":13.10375378,"ECCENTRICITY":9.957e-5,"INCLINATION":87.8825,"RA_OF_ASC_NODE":98.8531,"ARG_OF_PERICENTER":87.9132,"MEAN_ANOMALY":272.2109,"EPHEMERIS_TYPE":0,"CLASSIFICATION_TYPE":"U","NORAD_CAT_ID":61613,"ELEMENT_SET_NO":999,"REV_AT_EPOCH":4220,"BSTAR":0.00025461063,"MEAN_MOTION_DOT":1.02e-6,"MEAN_MOTION_DDOT":0}]
