ONEWEB-0690             
1 61598U 24188E   25219.62120545  .00000178  00000+0  46690-3 0  9999
2 61598  87.8808  83.5285 0002413  73.0836 287.0556 13.11415499 43534
ONEWEB-0691             
1 61599U 24188F   25219.61613907  .00000558  00000+0  15382-2 0  9993
2 61599  87.8720  83.5147 0001947  92.8917 267.2434 13.11414766 43389
ONEWEB-0692             
1 61600U 24188G   25219.56017503 -.00000229  00000+0 -68121-3 0  9997
2 61600  87.8791  83.6118 0001266  49.6677 310.4561 13.11416395 43366
ONEWEB-0693             
1 61601U 24188H   25219.57896940  .00000062  00000+0  12602-3 0  9995
2 61601  87.9031  68.3439 0002591  81.8979 278.2447 13.17649219 44584
ONEWEB-0695             
1 61602U 24188J   25219.61271934  .00000634  00000+0  17537-2 0  9997
2 61602  87.8794  83.5873 0001159  75.1123 285.0134 13.11419810 43367
ONEWEB-0697             
1 61603U 24188K   25219.56864988 -.00000438  00000+0 -12706-2 0  9996
2 61603  87.8785  83.5895 0001419  53.3440 306.7818 13.11416649 43346
ONEWEB-0698             
1 61604U 24188L   25219.62291959  .00000457  00000+0  12532-2 0  9992
2 61604  87.8790  83.5915 0002170  51.6408 308.4915 13.11416199 43376
ONEWEB-0699             
1 61605U 24188M   25219.61525858 -.00000606  00000+0 -17731-2 0  9994
2 61605  87.8794  98.7958 0001630  57.9369 302.1917 13.10372471 42242
ONEWEB-0700             
1 61606U 24188N   25219.61690872 -.00000562  00000+0 -16450-2 0  9992
2 61606  87.8754  98.6912 0001105  70.4819 289.6428 13.10372670 42231
ONEWEB-0701             
1 61607U 24188P   25219.40444950 -.00000083  00000+0 -27292-3 0  9999
2 61607  87.8791  98.8455 0001554  48.9303 311.1959 13.10376805 42215
ONEWEB-0702             
1 61608U 24188Q   25219.36350190  .00000034  00000+0  59277-4 0  9990
2 61608  87.8724  83.5944 0001085  51.8604 308.2622 13.11419838 43357
ONEWEB-0704             
1 61609U 24188R   25219.62189273 -.00000579  00000+0 -16938-2 0  9993
2 61609  87.8816  98.7443 0001072  48.7148 311.4072 13.10374761 42220
ONEWEB-0705             
1 61610U 24188S   25219.16873558  .00000055  00000+0  12060-3 0  9990
2 61610  87.8787  98.8755 0000744 115.8505 244.2699 13.10376289 34332
ONEWEB-0706             
1 61611U 24188T   25219.61188706 -.00000500  00000+0 -14675-2 0  9995
2 61611  87.8790  98.8146 0001336  76.3669 283.7608 13.10369795 42310
ONEWEB-0707             
1 61612U 24188U   25219.61857595 -.00000591  00000+0 -17281-2 0  9991
2 61612  87.8790  98.7790 0001219  68.3650 291.7607 13.10376250 42251
ONEWEB-0708             
1 61613U 24188V   25219.40777493  .00000102  00000+0  25461-3 0  9993
2 61613  87.8825  98.8531 0000995  87.9132 272.2109 13.10375378 42203
